{"type": "FeatureCollection", "features": [ {"type": "Feature", "properties": {"norad_id": 40664, "name": "SKY MEXICO-1", "group": "intelsat", "lat": 0.023075084685164986, "lon": 177.26016767347713, "alt_km": 35787.57539729347, "timestamp": "2025-12-12T11:38:31.084094+00:00", "meta": {"OBJECT_NAME": "SKY MEXICO-1", "OBJECT_ID": "2015-026B", "EPOCH": "2025-12-12T02:50:03.228288", "MEAN_MOTION": 1.00272492, "ECCENTRICITY": 0.0002555, "INCLINATION": 0.0349, "RA_OF_ASC_NODE": 76.9861, "ARG_OF_PERICENTER": 199.2646, "MEAN_ANOMALY": 128.5655, "EPHEMERIS_TYPE": 0, "CLASSIFICATION_TYPE": "U", "NORAD_CAT_ID": 40664, "ELEMENT_SET_NO": 999, "REV_AT_EPOCH": 3857, "BSTAR": 0, "MEAN_MOTION_DOT": -2.25e-06, "MEAN_MOTION_DDOT": 0}, "tle": {"line1": "1 40664U 15026B   25346.11809292 -.00000225  00000+0  00000+0 0  9994", "line2": "2 40664   0.0349  76.9861 0002555 199.2646 128.5655  1.00272492 38571"}}, "geometry": {"type": "Point", "coordinates": [177.26016767347713, 0.023075084685164986]}}, {"type": "Feature", "properties": {"norad_id": 40874, "name": "INTELSAT 34 (IS-34)", "group": "intelsat", "lat": -0.0238640610902432, "lon": -159.44768354921564, "alt_km": 35784.80990980065, "timestamp": "2025-12-12T11:38:31.084106+00:00", "meta": {"OBJECT_NAME": "INTELSAT 34 (IS-34)", "OBJECT_ID": "2015-039A", "EPOCH": "2025-12-12T02:56:40.092864", "MEAN_MOTION": 1.00271624, "ECCENTRICITY": 4.09e-05, "INCLINATION": 0.0134, "RA_OF_ASC_NODE": 329.9226, "ARG_OF_PERICENTER": 193.1894, "MEAN_ANOMALY": 266.6239, "EPHEMERIS_TYPE": 0, "CLASSIFICATION_TYPE": "U", "NORAD_CAT_ID": 40874, "ELEMENT_SET_NO": 999, "REV_AT_EPOCH": 3774, "BSTAR": 0, "MEAN_MOTION_DOT": -2.76e-06, "MEAN_MOTION_DDOT": 0}, "tle": {"line1": "1 40874U 15039A   25346.12268626 -.00000276  00000+0  00000+0 0  9998", "line2": "2 40874   0.0134 329.9226 0000409 193.1894 266.6239  1.00271624 37742"}}, "geometry": {"type": "Point", "coordinates": [-159.44768354921564, -0.0238640610902432]}}, {"type": "Feature", "properties": {"norad_id": 41581, "name": "INTELSAT 31 (IS-31)", "group": "intelsat", "lat": -0.015976997929999303, "lon": 160.9766128799625, "alt_km": 35781.23021117567, "timestamp": "2025-12-12T11:38:31.084117+00:00", "meta": {"OBJECT_NAME": "INTELSAT 31 (IS-31)", "OBJECT_ID": "2016-035A", "EPOCH": "2025-12-11T21:37:13.469376", "MEAN_MOTION": 1.00272085, "ECCENTRICITY": 0.0001989, "INCLINATION": 0.0172, "RA_OF_ASC_NODE": 268.6419, "ARG_OF_PERICENTER": 307.2662, "MEAN_ANOMALY": 94.1931, "EPHEMERIS_TYPE": 0, "CLASSIFICATION_TYPE": "U", "NORAD_CAT_ID": 41581, "ELEMENT_SET_NO": 999, "REV_AT_EPOCH": 3480, "BSTAR": 0, "MEAN_MOTION_DOT": -1.42e-06, "MEAN_MOTION_DDOT": 0}, "tle": {"line1": "1 41581U 16035A   25345.90085034 -.00000142  00000+0  00000+0 0  9998", "line2": "2 41581   0.0172 268.6419 0001989 307.2662  94.1931  1.00272085 34807"}}, "geometry": {"type": "Point", "coordinates": [160.9766128799625, -0.015976997929999303]}}, {"type": "Feature", "properties": {"norad_id": 41747, "name": "INTELSAT 36 (IS-36)", "group": "intelsat", "lat": -0.016676113127145984, "lon": -35.46545976311052, "alt_km": 35779.4485744307, "timestamp": "2025-12-12T11:38:31.084129+00:00", "meta": {"OBJECT_NAME": "INTELSAT 36 (IS-36)", "OBJECT_ID": "2016-053A", "EPOCH": "2025-12-11T19:58:55.649856", "MEAN_MOTION": 1.00270488, "ECCENTRICITY": 0.00016639, "INCLINATION": 0.0144, "RA_OF_ASC_NODE": 14.364, "ARG_OF_PERICENTER": 313.5424, "MEAN_ANOMALY": 121.097, "EPHEMERIS_TYPE": 0, "CLASSIFICATION_TYPE": "U", "NORAD_CAT_ID": 41747, "ELEMENT_SET_NO": 999, "REV_AT_EPOCH": 3407, "BSTAR": 0, "MEAN_MOTION_DOT": -1.6e-07, "MEAN_MOTION_DDOT": 0}, "tle": {"line1": "1 41747U 16053A   25345.83258854 -.00000016  00000+0  00000+0 0  9996", "line2": "2 41747   0.0144  14.3640 0001663 313.5424 121.0970  1.00270488 34074"}}, "geometry": {"type": "Point", "coordinates": [-35.46545976311052, -0.016676113127145984]}}, {"type": "Feature", "properties": {"norad_id": 41945, "name": "INTELSAT 32E (IS-32E)", "group": "intelsat", "lat": 0.00861356286909518, "lon": -147.14081017550038, "alt_km": 35788.801543809706, "timestamp": "2025-12-12T11:38:31.084140+00:00", "meta": {"OBJECT_NAME": "INTELSAT 32E (IS-32E)", "OBJECT_ID": "2017-007B", "EPOCH": "2025-12-12T03:00:09.758880", "MEAN_MOTION": 1.00269838, "ECCENTRICITY": 5.76e-05, "INCLINATION": 0.0368, "RA_OF_ASC_NODE": 83.1087, "ARG_OF_PERICENTER": 281.5058, "MEAN_ANOMALY": 78.3124, "EPHEMERIS_TYPE": 0, "CLASSIFICATION_TYPE": "U", "NORAD_CAT_ID": 41945, "ELEMENT_SET_NO": 999, "REV_AT_EPOCH": 3234, "BSTAR": 0, "MEAN_MOTION_DOT": -2.6e-06, "MEAN_MOTION_DDOT": 0}, "tle": {"line1": "1 41945U 17007B   25346.12511295 -.00000260  00000+0  00000+0 0  9991", "line2": "2 41945   0.0368  83.1087 0000576 281.5058  78.3124  1.00269838 32340"}}, "geometry": {"type": "Point", "coordinates": [-147.14081017550038, 0.00861356286909518]}}, {"type": "Feature", "properties": {"norad_id": 42818, "name": "INTELSAT 35E (IS-35E)", "group": "intelsat", "lat": -0.0254365333789315, "lon": -138.46201180960216, "alt_km": 35778.840467587244, "timestamp": "2025-12-12T11:38:31.084152+00:00", "meta": {"OBJECT_NAME": "INTELSAT 35E (IS-35E)", "OBJECT_ID": "2017-041A", "EPOCH": "2025-12-12T03:02:39.521184", "MEAN_MOTION": 1.00273544, "ECCENTRICITY": 0.0002085, "INCLINATION": 0.0182, "RA_OF_ASC_NODE": 4.6689, "ARG_OF_PERICENTER": 256.6606, "MEAN_ANOMALY": 190.9094, "EPHEMERIS_TYPE": 0, "CLASSIFICATION_TYPE": "U", "NORAD_CAT_ID": 42818, "ELEMENT_SET_NO": 999, "REV_AT_EPOCH": 3094, "BSTAR": 0, "MEAN_MOTION_DOT": -2.28e-06, "MEAN_MOTION_DDOT": 0}, "tle": {"line1": "1 42818U 17041A   25346.12684631 -.00000228  00000+0  00000+0 0  9998", "line2": "2 42818   0.0182   4.6689 0002085 256.6606 190.9094  1.00273544 30949"}}, "geometry": {"type": "Point", "coordinates": [-138.46201180960216, -0.0254365333789315]}}, {"type": "Feature", "properties": {"norad_id": 42950, "name": "INTELSAT 37E (IS-37E)", "group": "intelsat", "lat": -0.034989052745141545, "lon": -121.9526750858039, "alt_km": 35773.524664678334, "timestamp": "2025-12-12T11:38:31.084164+00:00", "meta": {"OBJECT_NAME": "INTELSAT 37E (IS-37E)", "OBJECT_ID": "2017-059A", "EPOCH": "2025-12-12T03:07:16.579200", "MEAN_MOTION": 1.00272169, "ECCENTRICITY": 0.0003108, "INCLINATION": 0.018, "RA_OF_ASC_NODE": 347.1592, "ARG_OF_PERICENTER": 269.5118, "MEAN_ANOMALY": 213.2327, "EPHEMERIS_TYPE": 0, "CLASSIFICATION_TYPE": "U", "NORAD_CAT_ID": 42950, "ELEMENT_SET_NO": 999, "REV_AT_EPOCH": 3019, "BSTAR": 0, "MEAN_MOTION_DOT": -1.31e-06, "MEAN_MOTION_DDOT": 0}, "tle": {"line1": "1 42950U 17059A   25346.13005300 -.00000131  00000+0  00000+0 0  9998", "line2": "2 42950   0.0180 347.1592 0003108 269.5118 213.2327  1.00272169 30197"}}, "geometry": {"type": "Point", "coordinates": [-121.9526750858039, -0.034989052745141545]}}, {"type": "Feature", "properties": {"norad_id": 43632, "name": "AZERSPACE 2 (IS-38)", "group": "intelsat", "lat": -0.02738826878767271, "lon": -58.829734351507994, "alt_km": 35780.86686304982, "timestamp": "2025-12-12T11:38:31.084175+00:00", "meta": {"OBJECT_NAME": "AZERSPACE 2 (IS-38)", "OBJECT_ID": "2018-074A", "EPOCH": "2025-12-11T06:30:38.803680", "MEAN_MOTION": 1.00271658, "ECCENTRICITY": 0.00014523, "INCLINATION": 0.0184, "RA_OF_ASC_NODE": 0.4784, "ARG_OF_PERICENTER": 266.8936, "MEAN_ANOMALY": 315.6295, "EPHEMERIS_TYPE": 0, "CLASSIFICATION_TYPE": "U", "NORAD_CAT_ID": 43632, "ELEMENT_SET_NO": 999, "REV_AT_EPOCH": 2656, "BSTAR": 0, "MEAN_MOTION_DOT": 1.43e-06, "MEAN_MOTION_DDOT": 0}, "tle": {"line1": "1 43632U 18074A   25345.27128245  .00000143  00000+0  00000+0 0  9994", "line2": "2 43632   0.0184   0.4784 0001452 266.8936 315.6295  1.00271658 26568"}}, "geometry": {"type": "Point", "coordinates": [-58.829734351507994, -0.02738826878767271]}}, {"type": "Feature", "properties": {"norad_id": 43633, "name": "HORIZONS-3E", "group": "intelsat", "lat": -0.009579158941892185, "lon": 65.05592405974039, "alt_km": 35790.7972399462, "timestamp": "2025-12-12T11:38:31.084187+00:00", "meta": {"OBJECT_NAME": "HORIZONS-3E", "OBJECT_ID": "2018-074B", "EPOCH": "2025-12-11T19:27:03.433824", "MEAN_MOTION": 1.00268276, "ECCENTRICITY": 0.0001075, "INCLINATION": 0.0429, "RA_OF_ASC_NODE": 180.5458, "ARG_OF_PERICENTER": 99.0829, "MEAN_ANOMALY": 261.9041, "EPHEMERIS_TYPE": 0, "CLASSIFICATION_TYPE": "U", "NORAD_CAT_ID": 43633, "ELEMENT_SET_NO": 999, "REV_AT_EPOCH": 2646, "BSTAR": 0, "MEAN_MOTION_DOT": -2.3e-07, "MEAN_MOTION_DDOT": 0}, "tle": {"line1": "1 43633U 18074B   25345.81045641 -.00000023  00000+0  00000+0 0  9991", "line2": "2 43633   0.0429 180.5458 0001075  99.0829 261.9041  1.00268276 26460"}}, "geometry": {"type": "Point", "coordinates": [65.05592405974039, -0.009579158941892185]}}, {"type": "Feature", "properties": {"norad_id": 44333, "name": "AT&T T-16", "group": "intelsat", "lat": 0.02503367670882533, "lon": 155.184157488146, "alt_km": 35782.94273877096, "timestamp": "2025-12-12T11:38:31.084198+00:00", "meta": {"OBJECT_NAME": "AT&T T-16", "OBJECT_ID": "2019-034A", "EPOCH": "2025-12-11T21:35:28.635072", "MEAN_MOTION": 1.0027134, "ECCENTRICITY": 7.8e-05, "INCLINATION": 0.0303, "RA_OF_ASC_NODE": 77.076, "ARG_OF_PERICENTER": 80.9177, "MEAN_ANOMALY": 145.8602, "EPHEMERIS_TYPE": 0, "CLASSIFICATION_TYPE": "U", "NORAD_CAT_ID": 44333, "ELEMENT_SET_NO": 999, "REV_AT_EPOCH": 2375, "BSTAR": 0, "MEAN_MOTION_DOT": -1.07e-06, "MEAN_MOTION_DDOT": 0}, "tle": {"line1": "1 44333U 19034A   25345.89963698 -.00000107  00000+0  00000+0 0  9998", "line2": "2 44333   0.0303  77.0760 0000780  80.9177 145.8602  1.00271340 23750"}}, "geometry": {"type": "Point", "coordinates": [155.184157488146, 0.02503367670882533]}}]}